[{"OBJECT_NAME":"GAOFEN-6","OBJECT_ID":"2018-048A","EPOCH":"2026-03-09T22:21:32.182272","MEAN_MOTION":14.76596577,"ECCENTRICITY":0.0013191,"INCLINATION":97.7867,"RA_OF_ASC_NODE":135.2035,"ARG_OF_PERICENTER":134.0247,"MEAN_ANOMALY":226.2053,"EPHEMERIS_TYPE":0,"CLASSIFICATION_TYPE":"U","NORAD_CAT_ID":43484,"ELEMENT_SET_NO":999,"REV_AT_EPOCH":41874,"BSTAR":0.00014448812,"MEAN_MOTION_DOT":9.61e-6,"MEAN_MOTION_DDOT":0},{"OBJECT_NAME":"CZ-6A DEB","OBJECT_ID":"2024-140EK","EPOCH":"2026-03-09T15:28:36.104448","MEAN_MOTION":14.67108539,"ECCENTRICITY":0.016811,"INCLINATION":89.0843,"RA_OF_ASC_NODE":287.4051,"ARG_OF_PERICENTER":210.7562,"MEAN_ANOMALY":148.3722,"EPHEMERIS_TYPE":0,"CLASSIFICATION_TYPE":"U","NORAD_CAT_ID":60760,"ELEMENT_SET_NO":999,"REV_AT_EPOCH":8264,"BSTAR":0.00036142,"MEAN_MOTION_DOT":2.531e-5,"MEAN_MOTION_DDOT":0}]
